[{"OBJECT_NAME":"STARLINK-36927","OBJECT_ID":"2026-037K","EPOCH":"2026-03-05T16:00:00.999936","MEAN_MOTION":15.93252835,"ECCENTRICITY":0.000144,"INCLINATION":42.9994,"RA_OF_ASC_NODE":223.2906,"ARG_OF_PERICENTER":278.9477,"MEAN_ANOMALY":69.6645,"EPHEMERIS_TYPE":0,"CLASSIFICATION_TYPE":"U","NORAD_CAT_ID":67941,"ELEMENT_SET_NO":999,"REV_AT_EPOCH":255,"BSTAR":-0.0041981,"MEAN_MOTION_DOT":-0.01536704,"MEAN_MOTION_DDOT":0.00067152},{"OBJECT_NAME":"STARLINK-36914","OBJECT_ID":"2026-037L","EPOCH":"2026-03-05T16:00:00.999936","MEAN_MOTION":15.92727212,"ECCENTRICITY":0.0001277,"INCLINATION":42.9995,"RA_OF_ASC_NODE":223.3166,"ARG_OF_PERICENTER":272.692,"MEAN_ANOMALY":65.7865,"EPHEMERIS_TYPE":0,"CLASSIFICATION_TYPE":"U","NORAD_CAT_ID":67942,"ELEMENT_SET_NO":999,"REV_AT_EPOCH":255,"BSTAR":-0.0043429,"MEAN_MOTION_DOT":-0.01546178,"MEAN_MOTION_DDOT":0.00067566},{"OBJECT_NAME":"STARLINK-36851","OBJECT_ID":"2026-037M","EPOCH":"2026-03-05T16:00:00.999936","MEAN_MOTION":15.92852942,"ECCENTRICITY":0.0001476,"INCLINATION":42.9995,"RA_OF_ASC_NODE":223.3104,"ARG_OF_PERICENTER":279.675,"MEAN_ANOMALY":61.318,"EPHEMERIS_TYPE":0,"CLASSIFICATION_TYPE":"U","NORAD_CAT_ID":67943,"ELEMENT_SET_NO":999,"REV_AT_EPOCH":255,"BSTAR":-0.0042797,"MEAN_MOTION_DOT":-0.01533965,"MEAN_MOTION_DDOT":0.0006667},{"OBJECT_NAME":"STARLINK-36892","OBJECT_ID":"2026-037N","EPOCH":"2026-03-05T16:00:00.999936","MEAN_MOTION":15.93100217,"ECCENTRICITY":0.0001378,"INCLINATION":42.9994,"RA_OF_ASC_NODE":223.2977,"ARG_OF_PERICENTER":278.7931,"MEAN_ANOMALY":67.241,"EPHEMERIS_TYPE":0,"CLASSIFICATION_TYPE":"U","NORAD_CAT_ID":67944,"ELEMENT_SET_NO":999,"REV_AT_EPOCH":255,"BSTAR":-0.0041545,"MEAN_MOTION_DOT":-0.01508858,"MEAN_MOTION_DDOT":0.00064836},{"OBJECT_NAME":"STARLINK-36908","OBJECT_ID":"2026-037P","EPOCH":"2026-03-05T16:00:00.999936","MEAN_MOTION":15.93364632,"ECCENTRICITY":0.000153,"INCLINATION":42.9994,"RA_OF_ASC_NODE":223.2824,"ARG_OF_PERICENTER":281.1873,"MEAN_ANOMALY":70.7061,"EPHEMERIS_TYPE":0,"CLASSIFICATION_TYPE":"U","NORAD_CAT_ID":67945,"ELEMENT_SET_NO":999,"REV_AT_EPOCH":255,"BSTAR":-0.0041618,"MEAN_MOTION_DOT":-0.01532502,"MEAN_MOTION_DDOT":0.00066888},{"OBJECT_NAME":"STARLINK-36909","OBJECT_ID":"2026-037Q","EPOCH":"2026-03-05T16:00:00.999936","MEAN_MOTION":15.93497541,"ECCENTRICITY":0.0001493,"INCLINATION":42.9994,"RA_OF_ASC_NODE":223.2775,"ARG_OF_PERICENTER":282.5252,"MEAN_ANOMALY":71.4468,"EPHEMERIS_TYPE":0,"CLASSIFICATION_TYPE":"U","NORAD_CAT_ID":67946,"ELEMENT_SET_NO":999,"REV_AT_EPOCH":255,"BSTAR":-0.0041034,"MEAN_MOTION_DOT":-0.01521787,"MEAN_MOTION_DDOT":0.00066118},{"OBJECT_NAME":"STARLINK-36920","OBJECT_ID":"2026-037R","EPOCH":"2026-03-05T16:00:00.999936","MEAN_MOTION":15.93625956,"ECCENTRICITY":0.0001284,"INCLINATION":42.9997,"RA_OF_ASC_NODE":223.2697,"ARG_OF_PERICENTER":278.3233,"MEAN_ANOMALY":78.615,"EPHEMERIS_TYPE":0,"CLASSIFICATION_TYPE":"U","NORAD_CAT_ID":67947,"ELEMENT_SET_NO":999,"REV_AT_EPOCH":255,"BSTAR":-0.0040993,"MEAN_MOTION_DOT":-0.01530504,"MEAN_MOTION_DDOT":0.00066901},{"OBJECT_NAME":"STARLINK-36873","OBJECT_ID":"2026-037S","EPOCH":"2026-03-05T16:00:00.999936","MEAN_MOTION":15.93761352,"ECCENTRICITY":0.0001526,"INCLINATION":42.9996,"RA_OF_ASC_NODE":223.2637,"ARG_OF_PERICENTER":282.3499,"MEAN_ANOMALY":77.007,"EPHEMERIS_TYPE":0,"CLASSIFICATION_TYPE":"U","NORAD_CAT_ID":67948,"ELEMENT_SET_NO":999,"REV_AT_EPOCH":255,"BSTAR":-0.0040838,"MEAN_MOTION_DOT":-0.01535695,"MEAN_MOTION_DDOT":0.00067408},{"OBJECT_NAME":"STARLINK-36863","OBJECT_ID":"2026-037T","EPOCH":"2026-03-05T16:00:00.999936","MEAN_MOTION":15.9388162,"ECCENTRICITY":0.000146,"INCLINATION":42.9998,"RA_OF_ASC_NODE":223.2562,"ARG_OF_PERICENTER":278.4757,"MEAN_ANOMALY":83.8877,"EPHEMERIS_TYPE":0,"CLASSIFICATION_TYPE":"U","NORAD_CAT_ID":67949,"ELEMENT_SET_NO":999,"REV_AT_EPOCH":255,"BSTAR":-0.0040619,"MEAN_MOTION_DOT":-0.01537237,"MEAN_MOTION_DDOT":0.00067613},{"OBJECT_NAME":"STARLINK-36887","OBJECT_ID":"2026-037U","EPOCH":"2026-03-05T16:00:00.999936","MEAN_MOTION":15.94014756,"ECCENTRICITY":0.0001448,"INCLINATION":42.9996,"RA_OF_ASC_NODE":223.2481,"ARG_OF_PERICENTER":274.8577,"MEAN_ANOMALY":90.6035,"EPHEMERIS_TYPE":0,"CLASSIFICATION_TYPE":"U","NORAD_CAT_ID":67950,"ELEMENT_SET_NO":999,"REV_AT_EPOCH":255,"BSTAR":-0.0040786,"MEAN_MOTION_DOT":-0.01554326,"MEAN_MOTION_DDOT":0.00069093},{"OBJECT_NAME":"STARLINK-36897","OBJECT_ID":"2026-037V","EPOCH":"2026-03-05T16:00:00.999936","MEAN_MOTION":15.94123797,"ECCENTRICITY":0.0001393,"INCLINATION":42.9998,"RA_OF_ASC_NODE":223.2416,"ARG_OF_PERICENTER":281.1085,"MEAN_ANOMALY":87.0461,"EPHEMERIS_TYPE":0,"CLASSIFICATION_TYPE":"U","NORAD_CAT_ID":67951,"ELEMENT_SET_NO":999,"REV_AT_EPOCH":255,"BSTAR":-0.0039983,"MEAN_MOTION_DOT":-0.01532845,"MEAN_MOTION_DDOT":0.00067421},{"OBJECT_NAME":"STARLINK-36381","OBJECT_ID":"2026-037W","EPOCH":"2026-03-05T16:00:00.999936","MEAN_MOTION":15.94387839,"ECCENTRICITY":0.0001707,"INCLINATION":42.9999,"RA_OF_ASC_NODE":223.2292,"ARG_OF_PERICENTER":277.6152,"MEAN_ANOMALY":95.4062,"EPHEMERIS_TYPE":0,"CLASSIFICATION_TYPE":"U","NORAD_CAT_ID":67952,"ELEMENT_SET_NO":999,"REV_AT_EPOCH":255,"BSTAR":-0.0039555,"MEAN_MOTION_DOT":-0.01538001,"MEAN_MOTION_DDOT":0.00068017},{"OBJECT_NAME":"STARLINK-36824","OBJECT_ID":"2026-037X","EPOCH":"2026-03-05T16:00:00.999936","MEAN_MOTION":15.94252582,"ECCENTRICITY":0.0001503,"INCLINATION":42.9999,"RA_OF_ASC_NODE":223.2353,"ARG_OF_PERICENTER":281.3322,"MEAN_ANOMALY":89.2659,"EPHEMERIS_TYPE":0,"CLASSIFICATION_TYPE":"U","NORAD_CAT_ID":67953,"ELEMENT_SET_NO":999,"REV_AT_EPOCH":255,"BSTAR":-0.0039607,"MEAN_MOTION_DOT":-0.01528968,"MEAN_MOTION_DDOT":0.00067194},{"OBJECT_NAME":"STARLINK-36869","OBJECT_ID":"2026-037Y","EPOCH":"2026-03-05T16:00:00.999936","MEAN_MOTION":15.94508887,"ECCENTRICITY":0.0001505,"INCLINATION":42.9998,"RA_OF_ASC_NODE":223.2236,"ARG_OF_PERICENTER":282.584,"MEAN_ANOMALY":92.5263,"EPHEMERIS_TYPE":0,"CLASSIFICATION_TYPE":"U","NORAD_CAT_ID":67954,"ELEMENT_SET_NO":999,"REV_AT_EPOCH":255,"BSTAR":-0.0038899,"MEAN_MOTION_DOT":-0.01522453,"MEAN_MOTION_DDOT":0.00066839},{"OBJECT_NAME":"STARLINK-36872","OBJECT_ID":"2026-037Z","EPOCH":"2026-03-05T16:00:00.999936","MEAN_MOTION":15.94753757,"ECCENTRICITY":0.0001491,"INCLINATION":42.9997,"RA_OF_ASC_NODE":223.2096,"ARG_OF_PERICENTER":282.4869,"MEAN_ANOMALY":98.0635,"EPHEMERIS_TYPE":0,"CLASSIFICATION_TYPE":"U","NORAD_CAT_ID":67955,"ELEMENT_SET_NO":999,"REV_AT_EPOCH":255,"BSTAR":-0.0038314,"MEAN_MOTION_DOT":-0.01519454,"MEAN_MOTION_DDOT":0.00066761},{"OBJECT_NAME":"STARLINK-36918","OBJECT_ID":"2026-037AA","EPOCH":"2026-03-05T16:00:00.999936","MEAN_MOTION":15.94876824,"ECCENTRICITY":0.000155,"INCLINATION":42.9998,"RA_OF_ASC_NODE":223.2025,"ARG_OF_PERICENTER":281.1258,"MEAN_ANOMALY":102.2865,"EPHEMERIS_TYPE":0,"CLASSIFICATION_TYPE":"U","NORAD_CAT_ID":67956,"ELEMENT_SET_NO":999,"REV_AT_EPOCH":255,"BSTAR":-0.003807,"MEAN_MOTION_DOT":-0.01519796,"MEAN_MOTION_DDOT":0.00066871}]
